#aV2007  3 26  0  0   .00000000      96 DD+AD WGS84 FIT  NGA
## 1420  86400.00000000   900.00000000 54185  .0000000000000
+   30     1  2  3  4  5  6  7  8  9 10 11 12 13 14 16 17 18
+         19 20 21 22 23 24 25 26 27 28 29 30 31  0  0  0  0
+          0  0  0  0  0  0  0  0  0  0  0  0  0  0  0  0  0
+          0  0  0  0  0  0  0  0  0  0  0  0  0  0  0  0  0
+          0  0  0  0  0  0  0  0  0  0  0  0  0  0  0  0  0
++         0  0  0  0  0  0  0  0  0  0  0  0  0  0  0  0  0
++         0  0  0  0  0  0  0  0  0  0  0  0  0  0  0  0  0
++         0  0  0  0  0  0  0  0  0  0  0  0  0  0  0  0  0
++         0  0  0  0  0  0  0  0  0  0  0  0  0  0  0  0  0
++         0  0  0  0  0  0  0  0  0  0  0  0  0  0  0  0  0
%c cc cc ccc ccc cccc cccc cccc cccc ccccc ccccc ccccc ccccc
%c cc cc ccc ccc cccc cccc cccc cccc ccccc ccccc ccccc ccccc
%f  0.0000000  0.000000000  0.00000000000  0.000000000000000
%f  0.0000000  0.000000000  0.00000000000  0.000000000000000
%i    0    0    0    0      0      0      0      0         0
%i    0    0    0    0      0      0      0      0         0
/*      NGA, ST. LOUIS,MO.                                  
/*   EPHEMERIS COMPUTED FROM  3 DAYS OF DATA                
/* CCCCCCCCCCCCCCCCCCCCCCCCCCCCCCCCCCCCCCCCCCCCCCCCCCCCCCCCC
/* CCCCCCCCCCCCCCCCCCCCCCCCCCCCCCCCCCCCCCCCCCCCCCCCCCCCCCCCC
*  2007  3 26 16  0   .00000000                                                 
P  1 -13996.821810  21998.889630   5095.186628    116.212758                    
V  1  -5391.370865   3573.994012 -31570.250746       .024586                    
P  2   7650.264355 -14190.707651  20837.897589     93.620441                    
V  2  26785.128130   4117.218664  -7218.647238       .032180                    
P  3  -8803.892676  24002.742749  -6738.647593     33.431769                    
V  3  -7768.067851   5110.182551  29567.269248       .055237                    
P  4  21305.176598  -7390.178715  14247.293672      9.000239                    
V  4  17614.313903   4723.576723 -23418.175689       .009993                    
P  5 -15000.068048 -21517.682424   4445.202375     41.251635                    
V  5    177.415974  -6784.955399 -30497.047903      -.028189                    
P  6 -14333.155248  -7119.696120  21388.850673    108.994474                    
V  6  15163.525269 -22126.377017   2771.844154       .206637                    
P  7 -16999.858313  -1953.746194  20673.564960    369.769155                    
V  7  13344.599430 -21822.306855   8985.232986      -.143690                    
P  8  26077.138379    184.436343  -6259.157724   -101.377555                    
V  8   7267.804374   3109.020804  30521.451833      -.013488                    
P  9 -11859.919728 -14558.907119 -19459.680729     63.270885                    
V  9  23387.973003    987.475318 -15237.902029       .016442                    
P 10    900.723829 -22715.420283  13346.260542     99.373257                    
V 10   8417.667147  15219.308293  25440.136812       .005233                    
P 11  14644.069278  13631.385229 -17700.668252     11.398404                    
V 11 -22321.842818   3280.518638 -15744.752030       .011392                    
P 12 -12284.501883 -23387.014573   3118.382256    -44.176390                    
V 12   1018.198531  -4581.135491 -31406.673715       .004739                    
P 13  15332.827287   3136.624022  21353.415627    156.934249                    
V 13 -16784.962780  21489.665216   8901.142650       .037649                    
P 14 -19838.061934  14232.941524 -10292.454621     13.218229                    
V 14   6748.703615 -11456.886884 -28685.986188       .015356                    
P 16  -5638.625505  18940.802756  17762.849961    134.305385                    
V 16  -9968.338398 -20163.918078  18562.426821       .033631                    
P 17  20067.253332 -12806.999896 -11639.461403     73.909929                    
V 17  -7040.688293  13296.771265 -26876.144827      -.013514                    
P 18 -17131.574248  -8627.710395 -18374.851368   -252.583469                    
V 18  -6856.292565 -22535.515212  16529.576956       .004770                    
P 19  -3401.331041  20949.330815 -15806.333877     18.540477                    
V 19 -14840.149007  14006.301765  21724.412090       .038309                    
P 20  13071.686328  22765.372341   4084.332349    -23.167476                    
V 20   -612.033034   6059.273062 -30993.986996      -.002785                    
P 21 -26308.481917  -5292.647756   1515.373086     74.227791                    
V 21   2219.825024  -2663.607400  30838.512425       .007614                    
P 22 -14687.677492   4494.058743 -21516.554523    173.871035                    
V 22  -9418.220330 -26067.628697    955.412431       .016216                    
P 23   8126.555066  13429.946428  21314.649563    156.470185                    
V 23 -16980.758420  21333.519064  -7129.929720       .020672                    
P 24 -19228.176658 -12783.420453  13066.667918     87.863533                    
V 24  16569.357577    389.688639  25454.667917       .029975                    
P 25   3858.252699  15376.352634  21706.889472    275.041931                    
V 25 -26636.991360   -291.206457   5195.415844      -.240515                    
P 26   4585.045379 -21332.645646 -15143.064925   -108.718605                    
V 26  12983.975068 -13485.624453  24153.420941      -.194592                    
P 27  25982.050680   4768.004828   4489.129417    101.471541                    
V 27  -5003.579105   2113.834448  30970.344883       .021110                    
P 28  15887.445364    303.863044 -21007.518059      4.562539                    
V 28   9573.707021  25658.192401   7153.157662      -.008390                    
P 29   8360.842503 -22594.659255 -10541.130094       .858400                    
V 29   9917.874145  -9797.993822  28643.472672       .005716                    
P 30 -17150.963051 -16111.608677  12121.801920     29.207881                    
V 30  -4230.326557 -15525.290871 -25857.829755       .011445                    
P 31 -19494.420143   8867.228835  15953.921820     17.411522                    
V 31 -19501.739290  -4183.112927 -21715.479498       .016864                    
EOF
